TDRS 3                  
1 19548U 88091B   26108.49857097 -.00000297  00000+0  00000+0 0  9996
2 19548  12.6479 341.3946 0040990 355.1902   0.5635  1.00277472124786
FLTSATCOM 8 (USA 46)    
1 20253U 89077A   26108.53315111 -.00000366  00000+0  00000+0 0  9994
2 20253  12.4384 351.5245 0007722   4.8414 167.7599  1.00264336259960
SKYNET 4C               
1 20776U 90079A   26107.80181948  .00000129  00000+0  00000+0 0  9992
2 20776  13.3600 350.2245 0002507  38.0061 139.7380  1.00274025130286
TDRS 5                  
1 21639U 91054B   26108.44290140  .00000086  00000+0  00000+0 0  9993
2 21639  14.0795 354.2203 0008408 283.0765 281.1063  1.00267046127118
TDRS 6                  
1 22314U 93003B   26108.29606249 -.00000293  00000+0  00000+0 0  9995
2 22314  14.1824 357.5058 0005600 182.7772  86.8812  1.00276625121806
UFO 2 (USA 95)          
1 22787U 93056A   26107.87219312  .00000129  00000+0  00000+0 0  9998
2 22787  11.8746   3.8858 0009147 350.7617 193.9671  1.00274493117945
USA 99 (MILSTAR-1 1)    
1 22988U 94009A   26108.27643186 -.00000195  00000+0  00000+0 0  9999
2 22988  17.5289  28.3575 0003274 349.0682 198.4754  1.00274204 32352
UFO 4 (USA 108)         
1 23467U 95003A   26108.61004093 -.00000018  00000+0  00000+0 0  9997
2 23467   9.7082  13.4293 0003544  10.6843 214.5055  1.00271880114353
TDRS 7                  
1 23613U 95035B   26108.17525204 -.00000237  00000+0  00000+0 0  9991
2 23613  13.4025 348.6044 0010817  61.9568 307.6929  1.00280376112651
USA 115 (MILSTAR-1 2)   
1 23712U 95060A   26108.34280858 -.00000065  00000+0  00000+0 0  9990
2 23712  14.0525   4.1932 0000809 315.2411 255.9680  1.00364997 32286
INMARSAT 3-F1           
1 23839U 96020A   26108.14505422 -.00000257  00000+0  00000+0 0  9995
2 23839  10.4790  47.1785 0004327 322.2389 215.4728  0.99997657109656
INMARSAT 3-F2           
1 24307U 96053A   26108.54280899  .00000124  00000+0  00000+0 0  9996
2 24307   9.7244  54.5344 0006697 338.5985 216.6464  0.99990851108321
INMARSAT 3-F3           
1 24674U 96070A   26108.31534537 -.00000294  00000+0  00000+0 0  9997
2 24674  10.1914  50.2154 0005125 314.3779  61.5319  0.99981955107317
AMC-3                   
1 24936U 97050A   26108.41253060 -.00000255  00000+0  00000+0 0  9994
2 24936   8.0005  64.7536 0002973 323.4343 254.8573  1.00270863 51831
USA 134                 
1 25019U 97065A   26108.38794669 -.00000058  00000+0  00000+0 0  9995
2 25019  12.7147  22.1660 0005870 320.9156 250.6747  1.00274077 32356
INMARSAT 3-F5           
1 25153U 98006B   26108.31145447 -.00000284  00000+0  00000+0 0  9998
2 25153   9.5614  53.8396 0004741 330.3932 240.3025  1.00274729103299
ABS-6                   
1 25924U 99053A   26108.55947566 -.00000115  00000+0  00000+0 0  9998
2 25924   0.0579  86.7031 0002957 310.8980 169.4824  1.00271918 97247
UFO 10 (USA 146)        
1 25967U 99063A   26107.12127912 -.00000179  00000+0  00000+0 0  9993
2 25967   9.8559  27.5336 0003913 326.7730 231.8326  1.00274470 96732
ASIASTAR                
1 26107U 00016A   26108.66001282 -.00000327  00000+0  00000+0 0  9996
2 26107   8.9933  58.7783 0004770 334.8432 155.7815  1.00270872 95321
USA 149 (DSP 20)        
1 26356U 00024A   26108.48100353  .00000098  00000+0  00000+0 0  9994
2 26356  13.1271  12.2732 0001190 336.4670 225.6497  1.00272492 32317
TDRS 8                  
1 26388U 00034A   26107.81195953 -.00000186  00000+0  00000+0 0  9995
2 26388  12.5907  31.8289 0005779 340.2478 210.8848  1.00268042 94579
NSS-11                  
1 26554U 00059A   26108.55183593  .00000031  00000+0  00000+0 0  9994
2 26554   1.9725  82.0538 0003194 315.4476 183.8376  1.00272227 40699
USA 153                 
1 26575U 00065A   26108.17832481 -.00000317  00000+0  00000+0 0  9997
2 26575  11.5236  35.9111 0003509  27.4129 341.7070  1.00270390 32332
AMC-6                   
1 26580U 00067A   26108.60451516  .00000093  00000+0  00000+0 0  9999
2 26580   0.0919  71.0725 0003675 329.8213 248.4119  1.00271581 93290
USA 157 (MILSTAR-2 2)   
1 26715U 01009A   26108.46850612  .00000114  00000+0  00000+0 0  9994
2 26715  11.4784  20.1291 0037925 181.5677  23.4687  1.00272779 32341
USA 159 (DSP 21)        
1 26880U 01033A   26108.60703228 -.00000310  00000+0  00000+0 0  9999
2 26880  12.7265  16.8377 0000245 185.3068   2.2231  0.99201647 32365
INTELSAT 902 (IS-902)   
1 26900U 01039A   26108.33252617 -.00000275  00000+0  00000+0 0  9999
2 26900   5.9679  72.4987 0004658 312.7146 250.8522  1.00271472 90095
USA 164 (MILSTAR-2 3)   
1 27168U 02001A   26107.94159975  .00000103  00000+0  00000+0 0  9994
2 27168  11.1087  22.2678 0099600   6.5963 175.1548  1.00275907 32359
INTELSAT 904 (IS-904)   
1 27380U 02007A   26108.28804525 -.00000217  00000+0  00000+0 0  9999
2 27380   6.7714  69.8866 0007362 333.6028 235.1546  1.00271284 51167
DIRECTV 5 (TEMPO 1)     
1 27426U 02023A   26108.55767788 -.00000050  00000+0  00000+0 0  9992
2 27426   4.7260  76.0315 0003386 319.6505 261.6666  1.00271851 87523
INTELSAT 905 (IS-905)   
1 27438U 02027A   26108.55230453  .00000101  00000+0  00000+0 0  9999
2 27438   6.6048  70.5013 0002978 328.9427 228.8504  1.00272618 50761
GALAXY 3C (G-3C)        
1 27445U 02030A   26108.56071123 -.00000146  00000+0  00000+0 0  9999
2 27445   3.5760  78.7757 0001409  30.2088 204.6904  1.00271091 45893
INTELSAT 906 (IS-906)   
1 27513U 02041A   26108.52093106  .00000020  00000+0  00000+0 0  9998
2 27513   5.6528  73.6404 0003818 328.7903  55.8826  1.00272660 86431
NIMIQ 2                 
1 27632U 02062A   26108.35897869 -.00000062  00000+0  00000+0 0  9999
2 27632   9.3098  57.5157 0006087 327.1114 201.9145  1.00271375 43589
USA 167                 
1 27691U 03008A   26108.47267123  .00000012  00000+0  00000+0 0  9996
2 27691  10.8450  43.9330 0005098 300.0684 270.5818  1.00269099  6171
USA 169 (MILSTAR-2 4)   
1 27711U 03012A   26107.62516844 -.00000224  00000+0  00000+0 0  9993
2 27711  12.2594  30.3260 0101484   6.0153 186.5916  1.00273482 32345
ASIASAT 4               
1 27718U 03014A   26108.46022236 -.00000215  00000+0  00000+0 0  9992
2 27718   4.5532  76.4782 0002769 316.9114 126.4173  1.00272883 44709
HELLAS-SAT 2            
1 27811U 03020A   26108.22096499 -.00000076  00000+0  00000+0 0  9994
2 27811   7.2066  68.5854 0004825 279.9443 287.3683  1.00271624 42247
THURAYA-2               
1 27825U 03026A   26108.44561743  .00000130  00000+0  00000+0 0  9998
2 27825   8.7505  32.2176 0003638 338.8161  39.9484  1.00272565 83750
OPTUS C1                
1 27831U 03028B   26108.61675492 -.00000144  00000+0  00000+0 0  9999
2 27831   6.7418  70.1147 0005963 316.2520 198.1462  1.00270620 52467
USA 170                 
1 27875U 03040A   26108.51304436  .00000132  00000+0  00000+0 0  9993
2 27875  10.3757  48.5002 0001773  15.9263 351.1299  1.00276082 32402
GALAXY 13 (HORIZONS-1)  
1 27954U 03044A   26108.54979118  .00000138  00000+0  00000+0 0  9999
2 27954   1.2655  84.5765 0002237 300.8085 229.2064  1.00269739 45978
YAMAL 202               
1 28089U 03053A   26108.65047326 -.00000073  00000+0  00000+0 0  9997
2 28089   6.1935  71.6490 0004125 289.7778 243.1017  1.00271454 82103
UFO 11 (USA 174)        
1 28117U 03057A   26107.81013951 -.00000096  00000+0  00000+0 0  9992
2 28117   8.9198  34.1223 0002933 337.7519 201.1389  1.00272152 81848
USA 176 (DSP 22)        
1 28158U 04004A   26108.43161603 -.00000261  00000+0  00000+0 0  9991
2 28158  11.9829  26.5066 0001961 290.3074 326.9201  1.00426197 32337
ABS-4 (MOBISAT-1)       
1 28184U 04007A   26108.52032440  .00000047  00000+0  00000+0 0  9990
2 28184   5.8924  72.7187 0005446 316.8287  65.3736  1.00270741 51748
EUTELSAT 139 WEST A     
1 28187U 04008A   26108.28726525 -.00000209  00000+0  00000+0 0  9992
2 28187   5.6783  72.6132 0000636 150.9425  50.5679  0.98808562 80768
AMC-11                  
1 28252U 04017A   26107.62211809 -.00000023  00000+0  00000+0 0  9990
2 28252   0.1523  81.6283 0007439  53.1654 183.6299  1.00144290 80251
INTELSAT 10-02          
1 28358U 04022A   26108.57925797 -.00000007  00000+0  00000+0 0  9998
2 28358   0.0453  54.2507 0001343  11.0888 348.8851  1.00269148 79958
ANIK F2                 
1 28378U 04027A   26108.55750455 -.00000043  00000+0  00000+0 0  9990
2 28378   3.1320  80.2115 0004022 327.6870 248.3627  1.00270733 40668
AMC-15                  
1 28446U 04041A   26108.41818995 -.00000083  00000+0  00000+0 0  9995
2 28446   0.0583  60.0024 0002183 342.0930 209.9464  1.00271525 78708
NSS-10                  
1 28526U 05003A   26108.28691859 -.00000244  00000+0  00000+0 0  9995
2 28526   6.3003  71.1620 0003047 303.6456 257.4536  1.00271326 52556
INMARSAT 4-F1           
1 28628U 05009A   26108.41218450  .00000039  00000+0  00000+0 0  9992
2 28628   5.0856  42.6636 0002681 337.8502 152.4735  1.00272771 77079
DIRECTV 8               
1 28659U 05019A   26108.48045322  .00000006  00000+0  00000+0 0  9994
2 28659   0.0367  84.4417 0003066 309.0293 227.0394  1.00270547 76474
GALAXY 28 (G-28)        
1 28702U 05022A   26108.34926571 -.00000193  00000+0  00000+0 0  9994
2 28702   3.1443  79.6423 0002992 307.3491 278.1242  1.00274450 51371
THAICOM 4               
1 28786U 05028A   26108.53193777 -.00000357  00000+0  00000+0 0  9999
2 28786   0.0920  82.5955 0001836 307.2235 127.8319  1.00271493 51653
ANIK F1R                
1 28868U 05036A   26108.51711131 -.00000068  00000+0  00000+0 0  9996
2 28868   4.1603  77.2962 0003110 318.0017 250.2171  1.00272180 45857
SYRACUSE 3A             
1 28885U 05041B   26108.44613743  .00000138  00000+0  00000+0 0  9990
2 28885   4.4922  76.5608 0003798 309.2876  27.5079  1.00272614 75148
INMARSAT 4-F2           
1 28899U 05044A   26108.58787854 -.00000255  00000+0  00000+0 0  9999
2 28899   5.0162  43.7375 0002485 335.4209 182.6877  1.00270534 74929
